ONEWEB-0589             
1 54655U 22166P   25323.59370694  .00000002  00000+0 -27428-4 0  9999
2 54655  87.9188 285.7981 0001177 103.2526 256.8740 13.21823998143852
ONEWEB-0590             
1 54656U 22166Q   25323.61824713  .00000128  00000+0  27877-3 0  9994
2 54656  87.9187 285.7695 0001649  69.9802 290.1509 13.21827991143843
ONEWEB-0591             
1 54657U 22166R   25323.62991221  .00000045  00000+0  76563-4 0  9990
2 54657  87.9186 285.7910 0001758  82.1955 277.9378 13.21827545143875
ONEWEB-0592             
1 54658U 22166S   25323.40610442  .00000038  00000+0  59865-4 0  9998
2 54658  87.9193 285.7963 0001747  82.7667 277.3665 13.21829274143724
ONEWEB-0593             
1 54659U 22166T   25323.42914290 -.00000105  00000+0 -28605-3 0  9993
2 54659  87.9186 285.8210 0001901  88.3725 271.7627 13.21824381143834
ONEWEB-0594             
1 54660U 22166U   25323.60027736 -.00001227  00000+0 -30028-2 0  9992
2 54660  87.9188 285.8051 0001938  84.4768 275.6587 13.21833280143875
ONEWEB-0595             
1 54661U 22166V   25323.42585362  .00000027  00000+0  33515-4 0  9998
2 54661  87.9186 285.8129 0001940  77.9093 282.2259 13.21826686143828
ONEWEB-0596             
1 54662U 22166W   25323.62660212  .00000145  00000+0  31925-3 0  9992
2 54662  87.9189 285.7893 0001831  79.9771 280.1570 13.21828766143850
ONEWEB-0597             
1 54663U 22166X   25323.60850785  .00000061  00000+0  11575-3 0  9993
2 54663  87.9189 285.7975 0001770  85.4114 274.7222 13.21828413143859
ONEWEB-0600             
1 54664U 22166Y   25323.43901644  .00000055  00000+0  10196-3 0  9997
2 54664  87.9189 285.8220 0001870  87.0711 273.0637 13.21827937143803
ONEWEB-0601             
1 54665U 22166Z   25323.43078619  .00000042  00000+0  70296-4 0  9999
2 54665  87.9189 285.8416 0001622  89.0722 271.0598 13.21828276143991
ONEWEB-0602             
1 54666U 22166AA  25323.62250673 -.00000015  00000+0 -68965-4 0  9995
2 54666  87.9187 285.8079 0002108  92.7694 267.3681 13.21824197143869
ONEWEB-0603             
1 54667U 22166AB  25323.62827507  .00000016  00000+0  74683-5 0  9996
2 54667  87.9198 285.7434 0001811  87.2821 272.8521 13.21824539143793
ONEWEB-0604             
1 54668U 22166AC  25323.46534806  .00000149  00000+0  32962-3 0  9995
2 54668  87.9190 285.7975 0001872  90.2105 269.9244 13.21826303143736
ONEWEB-0605             
1 54669U 22166AD  25323.61015021  .00000041  00000+0  67869-4 0  9992
2 54669  87.9184 285.7971 0001230  84.6302 275.4973 13.21828464143821
ONEWEB-0606             
1 54670U 22166AE  25323.40444748  .00000015  00000+0  39441-5 0  9990
2 54670  87.9186 285.8489 0001986  78.8600 281.2757 13.21824468143852
ONEWEB-0607             
1 54671U 22166AF  25323.59862910  .00000079  00000+0  15932-3 0  9993
2 54671  87.9186 285.7741 0001808  87.8887 272.2454 13.21829266143858
ONEWEB-0608             
1 54672U 22166AG  25323.60523167  .00000832  00000+0  19820-2 0  9990
2 54672  87.9196 285.7592 0001442  91.2398 268.8901 13.21818625143860
ONEWEB-0610             
1 54673U 22166AH  25323.43408188  .00000079  00000+0  16000-3 0  9998
2 54673  87.9185 285.8276 0001404  97.7741 262.3552 13.21827458143742
ONEWEB-0611             
1 54674U 22166AJ  25323.42750247 -.00000034  00000+0 -11473-3 0  9996
2 54674  87.9186 285.8246 0002099  81.5668 278.5704 13.21824707143732
ONEWEB-0612             
1 54675U 22166AK  25323.59205312  .00000018  00000+0  12525-4 0  9993
2 54675  87.9189 285.7707 0001777  86.0158 274.1180 13.21827427143746
ONEWEB-0615             
1 54676U 22166AL  25323.42091278  .00000069  00000+0  13464-3 0  9998
2 54676  87.9188 285.8315 0001859  83.7774 276.3572 13.21824463143736
ONEWEB-0655             
1 54677U 22166AM  25323.62331157  .00000131  00000+0  28612-3 0  9995
2 54677  87.9187 285.7957 0001956  91.7607 268.3751 13.21822691143752
ONEWEB-0659             
1 54678U 22166AN  25323.41268049  .00000136  00000+0  29844-3 0  9995
2 54678  87.9188 285.8378 0001909  80.4691 279.6658 13.21828692143813
ONEWEB-0685             
1 54679U 22166AP  25323.41330437  .00000048  00000+0  83525-4 0  9996
2 54679  87.9186 285.8337 0001671  89.9016 270.2310 13.21833606143709
ONEWEB-0712             
1 54680U 22166AQ  25323.61238954  .00000026  00000+0  33436-4 0  9993
2 54680  87.9023 270.5051 0002216  92.6523 267.4862 13.16592984144486
ONEWEB-0714             
1 54681U 22166AR  25323.41926655  .00000070  00000+0  13798-3 0  9991
2 54681  87.9189 285.8265 0001839  89.7205 270.4139 13.21824367143827
ONEWEB-0532             
1 55140U 23004A   25323.52544071  .00000111  00000+0  25176-3 0  9993
2 55140  87.9139  47.5495 0001354  99.4552 260.6733 13.17647659139970
ONEWEB-0533             
1 55141U 23004B   25323.27157249  .00000367  00000+0  98582-3 0  9997
2 55141  87.8972  32.3661 0001778 108.1915 251.9407 13.12441262140524
ONEWEB-0541             
1 55142U 23004C   25323.28988010  .00000053  00000+0  11400-3 0  9993
2 55142  87.8868  62.8454 0001579  98.2664 261.8643 13.11414540138433
ONEWEB-0543             
1 55143U 23004D   25323.44115960  .00000052  00000+0  98655-4 0  9995
2 55143  87.9189  17.1593 0002061 102.6322 257.5041 13.18688781142050
ONEWEB-0544             
1 55144U 23004E   25323.58633659 -.00000284  00000+0 -75217-3 0  9998
2 55144  87.9194  17.1200 0001988  94.2423 265.8937 13.18688489142070
ONEWEB-0560             
1 55145U 23004F   25323.20033377  .00000074  00000+0  15616-3 0  9991
2 55145  87.9200  17.1822 0002106  95.6105 264.5268 13.18688760142035
ONEWEB-0565             
1 55146U 23004G   25323.42136483 -.00000187  00000+0 -50735-3 0  9996
2 55146  87.9192  17.1870 0001902  82.2030 277.9318 13.18686000142052
ONEWEB-0567             
1 55147U 23004H   25323.41476884 -.00000236  00000+0 -63093-3 0  9994
2 55147  87.9199  17.1531 0002022  87.4061 272.7303 13.18685015142051
ONEWEB-0569             
1 55148U 23004J   25323.36738504 -.00000222  00000+0 -64331-3 0  9990
2 55148  87.9011   1.9112 0002627  83.1501 276.9927 13.13469067142638
ONEWEB-0570             
1 55149U 23004K   25323.55664273  .00000038  00000+0  63161-4 0  9997
2 55149  87.9200  17.1246 0001373  87.7528 272.3762 13.18686577142068
ONEWEB-0571             
1 55150U 23004L   25323.55004507  .00000035  00000+0  57165-4 0  9991
2 55150  87.9191  17.1266 0002430  68.3671 291.7720 13.18686469142070
ONEWEB-0572             
1 55151U 23004M   25323.25207196 -.00000267  00000+0 -72158-3 0  9995
2 55151  87.9146  47.6135 0001714  95.5827 264.5501 13.17649234139836
ONEWEB-0573             
1 55152U 23004N   25323.54342828  .00000038  00000+0  62999-4 0  9997
2 55152  87.9188  17.1343 0001732  71.3434 288.7886 13.18688998142066
ONEWEB-0588             
1 55153U 23004P   25323.38508764  .00000068  00000+0  13994-3 0  9996
2 55153  87.9204  17.1580 0001521  86.9564 273.1742 13.18688491142046
ONEWEB-0598             
1 55154U 23004Q   25323.57303707  .00000610  00000+0  16856-2 0  9990
2 55154  87.8860  62.8184 0002086  87.9377 272.1990 13.11417544138424
ONEWEB-0599             
1 55155U 23004R   25323.28918778  .00000059  00000+0  11758-3 0  9993
2 55155  87.9139  47.6086 0001962  99.5844 260.5509 13.17646932139842
ONEWEB-0614             
1 55156U 23004S   25323.56795089  .00000466  00000+0  12778-2 0  9997
2 55156  87.8862  62.8288 0001319 105.0949 255.0325 13.11417598138362
ONEWEB-0616             
1 55157U 23004T   25323.25544384  .00000041  00000+0  72294-4 0  9994
2 55157  87.9141  47.6060 0002648 112.5020 247.6392 13.17647748140050
ONEWEB-0617             
1 55158U 23004U   25323.55607154 -.00000075  00000+0 -24711-3 0  9992
2 55158  87.8861  62.8100 0001383  95.2568 264.8718 13.11418139138382
ONEWEB-0618             
1 55159U 23004V   25323.57353265  .00009026  00000+0  55061-3 0  9991
2 55159  86.9085 262.6048 0013103   4.9992 355.1374 15.10137387150596
ONEWEB-0619             
1 55160U 23004W   25323.28750642  .00000018  00000+0  14246-4 0  9994
2 55160  87.9138  47.5737 0001654 118.5469 241.5829 13.17651457139956
ONEWEB-0620             
1 55161U 23004X   25323.55098442 -.00000235  00000+0 -69992-3 0  9998
2 55161  87.8863  62.8308 0001636  94.4934 265.6381 13.11417603138354
ONEWEB-0621             
1 55162U 23004Y   25323.57812655  .00000590  00000+0  16283-2 0  9997
2 55162  87.8873  62.7937 0001502 108.8830 251.2461 13.11416824138332
ONEWEB-0622             
1 55163U 23004Z   25323.58320302  .00000523  00000+0  14393-2 0  9998
2 55163  87.8862  62.8040 0000924  89.8542 270.2692 13.11415760138326
ONEWEB-0623             
1 55164U 23004AA  25323.28246327  .00000008  00000+0 -13096-4 0  9990
2 55164  87.9130  47.6262 0000998 117.0531 243.0703 13.17645773139941
ONEWEB-0624             
1 55165U 23004AB  25323.61952664 -.00000161  00000+0 -48072-3 0  9998
2 55165  87.8959  32.2612 0001476 105.7266 254.4026 13.12920777140570
ONEWEB-0625             
1 55166U 23004AC  25323.27234461  .00000051  00000+0  97227-4 0  9992
2 55166  87.9128  47.6232 0001872 105.2296 254.9043 13.17650336139934
ONEWEB-0626             
1 55167U 23004AD  25323.26219470  .00000058  00000+0  11697-3 0  9998
2 55167  87.9131  47.6254 0001954  87.9832 272.1523 13.17647164139936
ONEWEB-0627             
1 55168U 23004AE  25323.25038792  .00000063  00000+0  12841-3 0  9992
2 55168  87.9130  47.6282 0001154 104.6559 255.4701 13.17648338139938
ONEWEB-0628             
1 55169U 23004AF  25323.14195384 -.00002432  00000+0 -67982-2 0  9991
2 55169  87.8968  32.3773 0001397 117.1410 242.9861 13.12424529140486
ONEWEB-0629             
1 55170U 23004AG  25323.30185984 -.00000017  00000+0 -76120-4 0  9999
2 55170  87.9133  47.6149 0001684 113.3078 246.8230 13.17650491139942
ONEWEB-0631             
1 55171U 23004AH  25323.60610797  .00000062  00000+0  12499-3 0  9994
2 55171  87.9211  17.0593 0001759  80.4316 279.7015 13.18684522142051
